start=new Date('2021-12-22T00:00:00.000Z').valueOf();
sats=[{"OBJECT_ID":"2021-024AB","MEAN_MOTION":"15.06393210","NORAD_CAT_ID":"48002","PERIAPSIS":"545.971","ELEMENT_SET_NO":"999","EPHEMERIS_TYPE":"0","MEAN_ANOMALY":"132.8915","SITE":"AFETR","TLE_LINE2":"2 48002  53.0558 329.4257 0001824  55.7989 132.8915 15.06393210  3598","MEAN_ELEMENT_THEORY":"SGP4","EPOCH":"2021-12-21T22:00:00.999936","ARG_OF_PERICENTER":"55.7989","GP_ID":"192178355","COUNTRY_CODE":"US","ECCENTRICITY":"0.00018240","FILE":"3246784","SEMIMAJOR_AXIS":"6925.369","CLASSIFICATION_TYPE":"U","BSTAR":"-0.00144730000000","INCLINATION":"53.0558","TIME_SYSTEM":"UTC","LAUNCH_DATE":"2021-03-24","APOAPSIS":"548.498","MEAN_MOTION_DOT":"-0.00021770","RCS_SIZE":"LARGE","RA_OF_ASC_NODE":"329.4257","CENTER_NAME":"EARTH","OBJECT_NAME":"STARLINK-2265","REV_AT_EPOCH":"359","DECAY_DATE":null,"OBJECT_TYPE":"PAYLOAD","REF_FRAME":"TEME","TLE_LINE1":"1 48002U 21024AB  21355.91667824 -.00021770  00000-0 -14473-2 0  9992","MEAN_MOTION_DDOT":"0.0000000000000","PERIOD":"95.593"},{"OBJECT_NAME":"STARLINK-2263","REV_AT_EPOCH":"4252","DECAY_DATE":null,"OBJECT_TYPE":"PAYLOAD","REF_FRAME":"TEME","MEAN_MOTION_DDOT":"0.0000000000000","PERIOD":"95.592","TLE_LINE1":"1 48003U 21024AC  21355.63452737  .00000891  00000-0  78659-4 0  9994","TIME_SYSTEM":"UTC","LAUNCH_DATE":"2021-03-24","BSTAR":"0.00007865900000","INCLINATION":"53.0566","MEAN_MOTION_DOT":"0.00000891","APOAPSIS":"548.139","RA_OF_ASC_NODE":"45.6954","CENTER_NAME":"EARTH","RCS_SIZE":"LARGE","COUNTRY_CODE":"US","ECCENTRICITY":"0.00013600","CLASSIFICATION_TYPE":"U","FILE":"3246784","SEMIMAJOR_AXIS":"6925.332","NORAD_CAT_ID":"48003","PERIAPSIS":"546.255","OBJECT_ID":"2021-024AC","MEAN_MOTION":"15.06405321","EPHEMERIS_TYPE":"0","ELEMENT_SET_NO":"999","SITE":"AFETR","TLE_LINE2":"2 48003  53.0566  45.6954 0001360  69.9139 290.1996 15.06405321 42528","MEAN_ANOMALY":"290.1996","ARG_OF_PERICENTER":"69.9139","GP_ID":"192179104","EPOCH":"2021-12-21T15:13:43.164768","MEAN_ELEMENT_THEORY":"SGP4"},{"DECAY_DATE":null,"REV_AT_EPOCH":"372","OBJECT_NAME":"STARLINK-2261","TLE_LINE1":"1 48004U 21024AD  21355.91667824  .00051970  12119-4  17392-3 0  9999","PERIOD":"90.523","MEAN_MOTION_DDOT":"0.0000121190000","REF_FRAME":"TEME","OBJECT_TYPE":"PAYLOAD","INCLINATION":"53.0403","BSTAR":"0.00017392000000","LAUNCH_DATE":"2021-03-24","TIME_SYSTEM":"UTC","RCS_SIZE":"LARGE","CENTER_NAME":"EARTH","RA_OF_ASC_NODE":"286.5736","APOAPSIS":"301.067","MEAN_MOTION_DOT":"0.00051970","COUNTRY_CODE":"US","SEMIMAJOR_AXIS":"6678.327","FILE":"3246784","CLASSIFICATION_TYPE":"U","ECCENTRICITY":"0.00013090","ELEMENT_SET_NO":"999","EPHEMERIS_TYPE":"0","MEAN_MOTION":"15.90747354","OBJECT_ID":"2021-024AD","PERIAPSIS":"299.318","NORAD_CAT_ID":"48004","MEAN_ELEMENT_THEORY":"SGP4","EPOCH":"2021-12-21T22:00:00.999936","GP_ID":"192179357","ARG_OF_PERICENTER":"145.0582","MEAN_ANOMALY":"234.7439","TLE_LINE2":"2 48004  53.0403 286.5736 0001309 145.0582 234.7439 15.90747354  3727","SITE":"AFETR"},{"MEAN_MOTION_DDOT":"0.0000000000000","PERIOD":"95.592","TLE_LINE1":"1 48005U 21024AE  21355.87687921 -.00001039  00000-0 -50846-4 0  9992","OBJECT_TYPE":"PAYLOAD","REF_FRAME":"TEME","DECAY_DATE":null,"OBJECT_NAME":"STARLINK-2254","REV_AT_EPOCH":"4298","RA_OF_ASC_NODE":"14.6261","CENTER_NAME":"EARTH","RCS_SIZE":"LARGE","MEAN_MOTION_DOT":"-0.00001039","APOAPSIS":"547.697","TIME_SYSTEM":"UTC","LAUNCH_DATE":"2021-03-24","BSTAR":"-0.00005084600000","INCLINATION":"53.0550","CLASSIFICATION_TYPE":"U","FILE":"3246784","SEMIMAJOR_AXIS":"6925.331","ECCENTRICITY":"0.00007230","COUNTRY_CODE":"US","ARG_OF_PERICENTER":"89.6748","GP_ID":"192177606","EPOCH":"2021-12-21T21:02:42.363744","MEAN_ELEMENT_THEORY":"SGP4","TLE_LINE2":"2 48005  53.0550  14.6261 0000723  89.6748 270.4324 15.06405666 42985","SITE":"AFETR","MEAN_ANOMALY":"270.4324","EPHEMERIS_TYPE":"0","ELEMENT_SET_NO":"999","NORAD_CAT_ID":"48005","PERIAPSIS":"546.695","OBJECT_ID":"2021-024AE","MEAN_MOTION":"15.06405666"},{"GP_ID":"192177856","ARG_OF_PERICENTER":"44.2129","MEAN_ELEMENT_THEORY":"SGP4","EPOCH":"2021-12-21T22:00:00.999936","SITE":"AFETR","TLE_LINE2":"2 48008  53.0558 309.4207 0002233  44.2129  54.4961 15.06395147  3592","MEAN_ANOMALY":"54.4961","EPHEMERIS_TYPE":"0","ELEMENT_SET_NO":"999","PERIAPSIS":"545.682","NORAD_CAT_ID":"48008","MEAN_MOTION":"15.06395147","OBJECT_ID":"2021-024AH","CLASSIFICATION_TYPE":"U","SEMIMAJOR_AXIS":"6925.363","FILE":"3246784","ECCENTRICITY":"0.00022330","COUNTRY_CODE":"US","CENTER_NAME":"EARTH","RA_OF_ASC_NODE":"309.4207","RCS_SIZE":"LARGE","MEAN_MOTION_DOT":"-0.00030182","APOAPSIS":"548.775","LAUNCH_DATE":"2021-03-24","TIME_SYSTEM":"UTC","INCLINATION":"53.0558","BSTAR":"-0.00201610000000","PERIOD":"95.592","MEAN_MOTION_DDOT":"0.0000000000000","TLE_LINE1":"1 48008U 21024AH  21355.91667824 -.00030182  00000-0 -20161-2 0  9996","REF_FRAME":"TEME","OBJECT_TYPE":"PAYLOAD","DECAY_DATE":null,"REV_AT_EPOCH":"359","OBJECT_NAME":"STARLINK-2271"},{"EPOCH":"2021-12-21T13:28:51.310272","MEAN_ELEMENT_THEORY":"SGP4","GP_ID":"192178605","ARG_OF_PERICENTER":"67.1154","MEAN_ANOMALY":"292.9990","TLE_LINE2":"2 48009  53.0560  26.0185 0001469  67.1154 292.9990 15.06404850 42805","SITE":"AFETR","ELEMENT_SET_NO":"999","EPHEMERIS_TYPE":"0","MEAN_MOTION":"15.06404850","OBJECT_ID":"2021-024AJ","PERIAPSIS":"546.181","NORAD_CAT_ID":"48009","SEMIMAJOR_AXIS":"6925.334","FILE":"3246784","CLASSIFICATION_TYPE":"U","ECCENTRICITY":"0.00014690","COUNTRY_CODE":"US","RCS_SIZE":"LARGE","CENTER_NAME":"EARTH","RA_OF_ASC_NODE":"26.0185","APOAPSIS":"548.216","MEAN_MOTION_DOT":"0.00000152","INCLINATION":"53.0560","BSTAR":"0.00002910200000","LAUNCH_DATE":"2021-03-24","TIME_SYSTEM":"UTC","TLE_LINE1":"1 48009U 21024AJ  21355.56170498  .00000152  00000-0  29102-4 0  9992","PERIOD":"95.592","MEAN_MOTION_DDOT":"0.0000000000000","REF_FRAME":"TEME","OBJECT_TYPE":"PAYLOAD","DECAY_DATE":null,"REV_AT_EPOCH":"4280","OBJECT_NAME":"STARLINK-2153"},{"OBJECT_ID":"2021-024AK","MEAN_MOTION":"15.06416231","NORAD_CAT_ID":"48010","PERIAPSIS":"546.409","ELEMENT_SET_NO":"999","EPHEMERIS_TYPE":"0","MEAN_ANOMALY":"282.7824","TLE_LINE2":"2 48010  53.0528  45.9920 0001090  77.3287 282.7824 15.06416231 42043","SITE":"AFETR","MEAN_ELEMENT_THEORY":"SGP4","EPOCH":"2021-12-21T13:43:28.646976","ARG_OF_PERICENTER":"77.3287","GP_ID":"192156344","COUNTRY_CODE":"US","ECCENTRICITY":"0.00010900","FILE":"3246751","SEMIMAJOR_AXIS":"6925.299","CLASSIFICATION_TYPE":"U","BSTAR":"-0.00000816850000","INCLINATION":"53.0528","TIME_SYSTEM":"UTC","LAUNCH_DATE":"2021-03-24","APOAPSIS":"547.919","MEAN_MOTION_DOT":"-0.00000403","RCS_SIZE":"LARGE","RA_OF_ASC_NODE":"45.9920","CENTER_NAME":"EARTH","OBJECT_NAME":"STARLINK-2226","REV_AT_EPOCH":"4204","DECAY_DATE":null,"OBJECT_TYPE":"PAYLOAD","REF_FRAME":"TEME","TLE_LINE1":"1 48010U 21024AK  21355.57185934 -.00000403  00000-0 -81685-5 0  9992","MEAN_MOTION_DDOT":"0.0000000000000","PERIOD":"95.591"},{"ECCENTRICITY":"0.00014010","CLASSIFICATION_TYPE":"U","SEMIMAJOR_AXIS":"6925.340","FILE":"3246489","COUNTRY_CODE":"US","TLE_LINE2":"2 48011  53.0582  26.4680 0001401  69.3920 290.7219 15.06402922 42849","SITE":"AFETR","MEAN_ANOMALY":"290.7219","GP_ID":"192148696","ARG_OF_PERICENTER":"69.3920","EPOCH":"2021-12-21T11:05:33.087264","MEAN_ELEMENT_THEORY":"SGP4","PERIAPSIS":"546.234","NORAD_CAT_ID":"48011","MEAN_MOTION":"15.06402922","OBJECT_ID":"2021-024AL","EPHEMERIS_TYPE":"0","ELEMENT_SET_NO":"999","REF_FRAME":"TEME","OBJECT_TYPE":"PAYLOAD","PERIOD":"95.592","MEAN_MOTION_DDOT":"0.0000000000000","TLE_LINE1":"1 48011U 21024AL  21355.46218851  .00001089  00000-0  91972-4 0  9994","REV_AT_EPOCH":"4284","OBJECT_NAME":"STARLINK-2272","DECAY_DATE":null,"MEAN_MOTION_DOT":"0.00001089","APOAPSIS":"548.175","CENTER_NAME":"EARTH","RA_OF_ASC_NODE":"26.4680","RCS_SIZE":"LARGE","LAUNCH_DATE":"2021-03-24","TIME_SYSTEM":"UTC","INCLINATION":"53.0582","BSTAR":"0.00009197200000"},{"MEAN_MOTION_DOT":"0.00001486","APOAPSIS":"548.426","CENTER_NAME":"EARTH","RA_OF_ASC_NODE":"0.2573","RCS_SIZE":"LARGE","LAUNCH_DATE":"2021-03-24","TIME_SYSTEM":"UTC","INCLINATION":"53.0575","BSTAR":"0.00011864000000","REF_FRAME":"TEME","OBJECT_TYPE":"PAYLOAD","PERIOD":"95.592","MEAN_MOTION_DDOT":"0.0000000000000","TLE_LINE1":"1 48012U 21024AM  21355.73267015  .00001486  00000-0  11864-3 0  9993","REV_AT_EPOCH":"4323","OBJECT_NAME":"STARLINK-2216","DECAY_DATE":null,"SITE":"AFETR","TLE_LINE2":"2 48012  53.0575   0.2573 0001761  60.1043 300.0121 15.06402346 43238","MEAN_ANOMALY":"300.0121","GP_ID":"192178356","ARG_OF_PERICENTER":"60.1043","MEAN_ELEMENT_THEORY":"SGP4","EPOCH":"2021-12-21T17:35:02.700960","PERIAPSIS":"545.987","NORAD_CAT_ID":"48012","MEAN_MOTION":"15.06402346","OBJECT_ID":"2021-024AM","EPHEMERIS_TYPE":"0","ELEMENT_SET_NO":"999","ECCENTRICITY":"0.00017610","CLASSIFICATION_TYPE":"U","SEMIMAJOR_AXIS":"6925.341","FILE":"3246784","COUNTRY_CODE":"US"},{"OBJECT_ID":"2021-024AN","MEAN_MOTION":"15.06407086","NORAD_CAT_ID":"48013","PERIAPSIS":"545.830","ELEMENT_SET_NO":"999","EPHEMERIS_TYPE":"0","MEAN_ANOMALY":"293.9080","SITE":"AFETR","TLE_LINE2":"2 48013  53.0550  11.3829 0001966  66.2114 293.9080 15.06407086 43007","MEAN_ELEMENT_THEORY":"SGP4","EPOCH":"2021-12-21T11:38:05.595936","ARG_OF_PERICENTER":"66.2114","GP_ID":"192148197","COUNTRY_CODE":"US","ECCENTRICITY":"0.00019660","FILE":"3246489","SEMIMAJOR_AXIS":"6925.327","CLASSIFICATION_TYPE":"U","BSTAR":"0.00009051700000","INCLINATION":"53.0550","TIME_SYSTEM":"UTC","LAUNCH_DATE":"2021-03-24","APOAPSIS":"548.553","MEAN_MOTION_DOT":"0.00001067","RCS_SIZE":"LARGE","RA_OF_ASC_NODE":"11.3829","CENTER_NAME":"EARTH","OBJECT_NAME":"STARLINK-2243","REV_AT_EPOCH":"4300","DECAY_DATE":null,"OBJECT_TYPE":"PAYLOAD","REF_FRAME":"TEME","TLE_LINE1":"1 48013U 21024AN  21355.48478699  .00001067  00000-0  90517-4 0  9996","MEAN_MOTION_DDOT":"0.0000000000000","PERIOD":"95.592"}];
